start=new Date('2022-06-09T00:00:00.000Z').valueOf();
sats=[{"OBJECT_ID":"2020-006F","REV_AT_EPOCH":"12995","REF_FRAME":"TEME","DECAY_DATE":null,"CLASSIFICATION_TYPE":"U","COUNTRY_CODE":"US","ARG_OF_PERICENTER":"52.1217","PERIOD":"95.373","FILE":"3485745","ELEMENT_SET_NO":"999","SEMIMAJOR_AXIS":"6914.741","RCS_SIZE":"LARGE","RA_OF_ASC_NODE":"316.4496","MEAN_MOTION_DOT":"0.00002115","EPOCH":"2022-06-08T11:00:56.817216","MEAN_MOTION_DDOT":"0.0000000000000","TLE_LINE1":"1 45049U 20006F   22159.45899094  .00002115  00000-0  14693-3 0  9992","BSTAR":"0.00014693000000","OBJECT_NAME":"STARLINK-1135","MEAN_ELEMENT_THEORY":"SGP4","APOAPSIS":"537.520","ECCENTRICITY":"0.00013220","MEAN_MOTION":"15.09867610","PERIAPSIS":"535.692","MEAN_ANOMALY":"307.9893","NORAD_CAT_ID":"45049","TIME_SYSTEM":"UTC","SITE":"AFETR","GP_ID":"205633217","TLE_LINE2":"2 45049  53.0553 316.4496 0001322  52.1217 307.9893 15.09867610129952","CENTER_NAME":"EARTH","OBJECT_TYPE":"PAYLOAD","INCLINATION":"53.0553","EPHEMERIS_TYPE":"0","LAUNCH_DATE":"2020-01-29"},{"TLE_LINE1":"1 45050U 20006G   22159.53257143 -.00002175  00000-0 -12717-3 0  9999","RCS_SIZE":"LARGE","RA_OF_ASC_NODE":"317.4845","SEMIMAJOR_AXIS":"6925.354","EPOCH":"2022-06-08T12:46:54.171552","MEAN_MOTION_DOT":"-0.00002175","ELEMENT_SET_NO":"999","MEAN_MOTION_DDOT":"0.0000000000000","APOAPSIS":"548.442","MEAN_ELEMENT_THEORY":"SGP4","BSTAR":"-0.00012717000000","OBJECT_NAME":"STARLINK-1140","REV_AT_EPOCH":"12994","REF_FRAME":"TEME","DECAY_DATE":null,"OBJECT_ID":"2020-006G","COUNTRY_CODE":"US","FILE":"3485745","PERIOD":"95.592","ARG_OF_PERICENTER":"66.6709","CLASSIFICATION_TYPE":"U","TLE_LINE2":"2 45050  53.0541 317.4845 0001766  66.6709 293.4466 15.06398099129949","CENTER_NAME":"EARTH","SITE":"AFETR","GP_ID":"205631967","EPHEMERIS_TYPE":"0","LAUNCH_DATE":"2020-01-29","OBJECT_TYPE":"PAYLOAD","INCLINATION":"53.0541","PERIAPSIS":"545.996","MEAN_ANOMALY":"293.4466","ECCENTRICITY":"0.00017660","MEAN_MOTION":"15.06398099","TIME_SYSTEM":"UTC","NORAD_CAT_ID":"45050"},{"CLASSIFICATION_TYPE":"U","COUNTRY_CODE":"US","FILE":"3485136","PERIOD":"95.215","ARG_OF_PERICENTER":"132.7214","OBJECT_ID":"2020-006H","REV_AT_EPOCH":"12989","DECAY_DATE":null,"REF_FRAME":"TEME","BSTAR":"0.00080524000000","OBJECT_NAME":"STARLINK-1141","APOAPSIS":"529.509","MEAN_ELEMENT_THEORY":"SGP4","EPOCH":"2022-06-07T20:22:01.587072","RCS_SIZE":"LARGE","SEMIMAJOR_AXIS":"6907.102","RA_OF_ASC_NODE":"316.8670","MEAN_MOTION_DOT":"0.00013860","ELEMENT_SET_NO":"999","MEAN_MOTION_DDOT":"0.0000000000000","TLE_LINE1":"1 45051U 20006H   22158.84862948  .00013860  00000-0  80524-3 0  9990","NORAD_CAT_ID":"45051","TIME_SYSTEM":"UTC","ECCENTRICITY":"0.00007840","MEAN_MOTION":"15.12373112","MEAN_ANOMALY":"227.3843","PERIAPSIS":"528.426","OBJECT_TYPE":"PAYLOAD","INCLINATION":"53.0514","EPHEMERIS_TYPE":"0","LAUNCH_DATE":"2020-01-29","SITE":"AFETR","GP_ID":"205592125","TLE_LINE2":"2 45051  53.0514 316.8670 0000784 132.7214 227.3843 15.12373112129899","CENTER_NAME":"EARTH"},{"MEAN_ANOMALY":"286.6091","PERIAPSIS":"546.110","ECCENTRICITY":"0.00016250","MEAN_MOTION":"15.06392824","TIME_SYSTEM":"UTC","NORAD_CAT_ID":"45052","TLE_LINE2":"2 45052  53.0552 317.4544 0001625  73.5076 286.6091 15.06392824129945","CENTER_NAME":"EARTH","SITE":"AFETR","GP_ID":"205632969","EPHEMERIS_TYPE":"0","LAUNCH_DATE":"2020-01-29","OBJECT_TYPE":"PAYLOAD","INCLINATION":"53.0552","REV_AT_EPOCH":"12994","REF_FRAME":"TEME","DECAY_DATE":null,"OBJECT_ID":"2020-006J","COUNTRY_CODE":"US","ARG_OF_PERICENTER":"73.5076","PERIOD":"95.593","FILE":"3485745","CLASSIFICATION_TYPE":"U","TLE_LINE1":"1 45052U 20006J   22159.53995101 -.00000861  00000-0 -38884-4 0  9998","ELEMENT_SET_NO":"999","RA_OF_ASC_NODE":"317.4544","RCS_SIZE":"LARGE","SEMIMAJOR_AXIS":"6925.371","EPOCH":"2022-06-08T12:57:31.767264","MEAN_MOTION_DOT":"-0.00000861","MEAN_MOTION_DDOT":"0.0000000000000","MEAN_ELEMENT_THEORY":"SGP4","APOAPSIS":"548.361","BSTAR":"-0.00003888400000","OBJECT_NAME":"STARLINK-1148"},{"TIME_SYSTEM":"UTC","NORAD_CAT_ID":"45053","PERIAPSIS":"526.257","MEAN_ANOMALY":"245.4230","MEAN_MOTION":"15.12898446","ECCENTRICITY":"0.00016090","LAUNCH_DATE":"2020-01-29","EPHEMERIS_TYPE":"0","INCLINATION":"53.0026","OBJECT_TYPE":"PAYLOAD","CENTER_NAME":"EARTH","TLE_LINE2":"2 45053  53.0026 310.2688 0001609 114.6929 245.4230 15.12898446130003","GP_ID":"205632717","SITE":"AFETR","FILE":"3485745","ARG_OF_PERICENTER":"114.6929","PERIOD":"95.182","COUNTRY_CODE":"US","CLASSIFICATION_TYPE":"U","DECAY_DATE":null,"REF_FRAME":"TEME","REV_AT_EPOCH":"13000","OBJECT_ID":"2020-006K","APOAPSIS":"528.479","MEAN_ELEMENT_THEORY":"SGP4","OBJECT_NAME":"STARLINK-1155","BSTAR":"0.00075619000000","TLE_LINE1":"1 45053U 20006K   22159.44324762  .00013192  00000-0  75619-3 0  9993","MEAN_MOTION_DDOT":"0.0000000000000","RCS_SIZE":"LARGE","MEAN_MOTION_DOT":"0.00013192","SEMIMAJOR_AXIS":"6905.503","EPOCH":"2022-06-08T10:38:16.594368","RA_OF_ASC_NODE":"310.2688","ELEMENT_SET_NO":"999"},{"MEAN_MOTION":"15.06400124","ECCENTRICITY":"0.00016760","MEAN_ANOMALY":"276.2179","PERIAPSIS":"546.052","NORAD_CAT_ID":"45054","TIME_SYSTEM":"UTC","GP_ID":"205631467","SITE":"AFETR","CENTER_NAME":"EARTH","TLE_LINE2":"2 45054  53.0557 317.7852 0001676  83.9001 276.2179 15.06400124129930","INCLINATION":"53.0557","OBJECT_TYPE":"PAYLOAD","EPHEMERIS_TYPE":"0","LAUNCH_DATE":"2020-01-29","OBJECT_ID":"2020-006L","REF_FRAME":"TEME","DECAY_DATE":null,"REV_AT_EPOCH":"12993","CLASSIFICATION_TYPE":"U","ARG_OF_PERICENTER":"83.9001","PERIOD":"95.592","FILE":"3485745","COUNTRY_CODE":"US","MEAN_MOTION_DDOT":"0.0000000000000","ELEMENT_SET_NO":"999","RCS_SIZE":"LARGE","SEMIMAJOR_AXIS":"6925.348","MEAN_MOTION_DOT":"-0.00000357","EPOCH":"2022-06-08T11:16:40.415808","RA_OF_ASC_NODE":"317.7852","TLE_LINE1":"1 45054U 20006L   22159.46991222 -.00000357  00000-0 -50679-5 0  9999","OBJECT_NAME":"STARLINK-1156","BSTAR":"-0.00000506790000","MEAN_ELEMENT_THEORY":"SGP4","APOAPSIS":"548.374"},{"CENTER_NAME":"EARTH","TLE_LINE2":"2 45057  53.0583 317.4069 0001629  80.6185 279.4988 15.06402885129955","GP_ID":"205632218","SITE":"AFETR","LAUNCH_DATE":"2020-01-29","EPHEMERIS_TYPE":"0","INCLINATION":"53.0583","OBJECT_TYPE":"PAYLOAD","MEAN_ANOMALY":"279.4988","PERIAPSIS":"546.077","MEAN_MOTION":"15.06402885","ECCENTRICITY":"0.00016290","TIME_SYSTEM":"UTC","NORAD_CAT_ID":"45057","TLE_LINE1":"1 45057U 20006P   22159.55100074  .00001852  00000-0  14321-3 0  9990","MEAN_MOTION_DDOT":"0.0000000000000","ELEMENT_SET_NO":"999","RCS_SIZE":"LARGE","RA_OF_ASC_NODE":"317.4069","SEMIMAJOR_AXIS":"6925.340","EPOCH":"2022-06-08T13:13:26.463936","MEAN_MOTION_DOT":"0.00001852","MEAN_ELEMENT_THEORY":"SGP4","APOAPSIS":"548.333","OBJECT_NAME":"STARLINK-1159","BSTAR":"0.00014321000000","DECAY_DATE":null,"REF_FRAME":"TEME","REV_AT_EPOCH":"12995","OBJECT_ID":"2020-006P","PERIOD":"95.592","ARG_OF_PERICENTER":"80.6185","FILE":"3485745","COUNTRY_CODE":"US","CLASSIFICATION_TYPE":"U"},{"OBJECT_NAME":"STARLINK-1162","BSTAR":"0.00003320100000","APOAPSIS":"548.428","MEAN_ELEMENT_THEORY":"SGP4","MEAN_MOTION_DDOT":"0.0000000000000","RCS_SIZE":"LARGE","SEMIMAJOR_AXIS":"6925.349","EPOCH":"2022-06-08T13:02:49.817760","RA_OF_ASC_NODE":"317.4408","MEAN_MOTION_DOT":"0.00000213","ELEMENT_SET_NO":"999","TLE_LINE1":"1 45058U 20006Q   22159.54363215  .00000213  00000-0  33201-4 0  9997","CLASSIFICATION_TYPE":"U","FILE":"3485745","PERIOD":"95.592","ARG_OF_PERICENTER":"85.1970","COUNTRY_CODE":"US","OBJECT_ID":"2020-006Q","REF_FRAME":"TEME","DECAY_DATE":null,"REV_AT_EPOCH":"12995","INCLINATION":"53.0581","OBJECT_TYPE":"PAYLOAD","LAUNCH_DATE":"2020-01-29","EPHEMERIS_TYPE":"0","GP_ID":"205632469","SITE":"AFETR","CENTER_NAME":"EARTH","TLE_LINE2":"2 45058  53.0581 317.4408 0001753  85.1970 274.9219 15.06399823129955","NORAD_CAT_ID":"45058","TIME_SYSTEM":"UTC","MEAN_MOTION":"15.06399823","ECCENTRICITY":"0.00017530","PERIAPSIS":"546.000","MEAN_ANOMALY":"274.9219"},{"BSTAR":"0.00005705000000","OBJECT_NAME":"STARLINK-1165","MEAN_ELEMENT_THEORY":"SGP4","APOAPSIS":"548.183","ELEMENT_SET_NO":"999","RCS_SIZE":"LARGE","MEAN_MOTION_DOT":"0.00000568","SEMIMAJOR_AXIS":"6925.355","EPOCH":"2022-06-08T13:34:40.706688","RA_OF_ASC_NODE":"317.3546","MEAN_MOTION_DDOT":"0.0000000000000","TLE_LINE1":"1 45059U 20006R   22159.56574892  .00000568  00000-0  57050-4 0  9996","CLASSIFICATION_TYPE":"U","COUNTRY_CODE":"US","ARG_OF_PERICENTER":"80.8376","PERIOD":"95.592","FILE":"3485745","OBJECT_ID":"2020-006R","REV_AT_EPOCH":"12995","DECAY_DATE":null,"REF_FRAME":"TEME","OBJECT_TYPE":"PAYLOAD","INCLINATION":"53.0564","EPHEMERIS_TYPE":"0","LAUNCH_DATE":"2020-01-29","SITE":"AFETR","GP_ID":"205633218","TLE_LINE2":"2 45059  53.0564 317.3546 0001390  80.8376 279.2771 15.06397812129955","CENTER_NAME":"EARTH","NORAD_CAT_ID":"45059","TIME_SYSTEM":"UTC","ECCENTRICITY":"0.00013900","MEAN_MOTION":"15.06397812","PERIAPSIS":"546.258","MEAN_ANOMALY":"279.2771"},{"COUNTRY_CODE":"US","FILE":"3485745","ARG_OF_PERICENTER":"63.9030","PERIOD":"95.592","CLASSIFICATION_TYPE":"U","REV_AT_EPOCH":"12995","REF_FRAME":"TEME","DECAY_DATE":null,"OBJECT_ID":"2020-006S","APOAPSIS":"548.294","MEAN_ELEMENT_THEORY":"SGP4","BSTAR":"0.00014142000000","OBJECT_NAME":"STARLINK-1166","TLE_LINE1":"1 45060U 20006S   22159.56205283  .00001826  00000-0  14142-3 0  9995","SEMIMAJOR_AXIS":"6925.334","RCS_SIZE":"LARGE","EPOCH":"2022-06-08T13:29:21.364512","MEAN_MOTION_DOT":"0.00001826","RA_OF_ASC_NODE":"317.3630","ELEMENT_SET_NO":"999","MEAN_MOTION_DDOT":"0.0000000000000","TIME_SYSTEM":"UTC","NORAD_CAT_ID":"45060","PERIAPSIS":"546.104","MEAN_ANOMALY":"296.2122","ECCENTRICITY":"0.00015810","MEAN_MOTION":"15.06404766","EPHEMERIS_TYPE":"0","LAUNCH_DATE":"2020-01-29","OBJECT_TYPE":"PAYLOAD","INCLINATION":"53.0560","TLE_LINE2":"2 45060  53.0560 317.3630 0001581  63.9030 296.2122 15.06404766129954","CENTER_NAME":"EARTH","SITE":"AFETR","GP_ID":"205631968"}];
